{
    "links": {
        "self": "http://www.neowsapp.com/rest/v1/neo/3759287?api_key=iIulBulltgU6a56xZRHN4H3l9WmuAYTsLGpBGhQ2"
    },
    "id": "3759287",
    "neo_reference_id": "3759287",
    "name": "(2016 RH20)",
    "designation": "2016 RH20",
    "nasa_jpl_url": "http://ssd.jpl.nasa.gov/sbdb.cgi?sstr=3759287",
    "absolute_magnitude_h": 23.4,
    "estimated_diameter": {
        "kilometers": {
            "estimated_diameter_min": 0.0555334912,
            "estimated_diameter_max": 0.1241766613
        },
        "meters": {
            "estimated_diameter_min": 55.5334911581,
            "estimated_diameter_max": 124.1766612574
        },
        "miles": {
            "estimated_diameter_min": 0.0345069009,
            "estimated_diameter_max": 0.0771597762
        },
        "feet": {
            "estimated_diameter_min": 182.1964991311,
            "estimated_diameter_max": 407.4037573197
        }
    },
    "is_potentially_hazardous_asteroid": false,
    "close_approach_data": [
        {
            "close_approach_date": "2016-05-09",
            "close_approach_date_full": "2016-May-09 08:17",
            "epoch_date_close_approach": 1462781820000,
            "relative_velocity": {
                "kilometers_per_second": "8.0829687646",
                "kilometers_per_hour": "29098.687552391",
                "miles_per_hour": "18080.7928294287"
            },
            "miss_distance": {
                "astronomical": "0.2176992909",
                "lunar": "84.6850241601",
                "kilometers": "32567350.219150383",
                "miles": "20236413.0512379654"
            },
            "orbiting_body": "Earth"
        },
        {
            "close_approach_date": "2016-08-14",
            "close_approach_date_full": "2016-Aug-14 17:43",
            "epoch_date_close_approach": 1471196580000,
            "relative_velocity": {
                "kilometers_per_second": "7.0771582621",
                "kilometers_per_hour": "25477.7697434232",
                "miles_per_hour": "15830.8953164065"
            },
            "miss_distance": {
                "astronomical": "0.234812479",
                "lunar": "91.342054331",
                "kilometers": "35127446.70781973",
                "miles": "21827183.244303074"
            },
            "orbiting_body": "Earth"
        },
        {
            "close_approach_date": "2018-09-02",
            "close_approach_date_full": "2018-Sep-02 14:38",
            "epoch_date_close_approach": 1535899080000,
            "relative_velocity": {
                "kilometers_per_second": "19.2703224581",
                "kilometers_per_hour": "69373.1608491337",
                "miles_per_hour": "43105.7843065076"
            },
            "miss_distance": {
                "astronomical": "0.4258547165",
                "lunar": "165.6574847185",
                "kilometers": "63706958.517853855",
                "miles": "39585668.411158999"
            },
            "orbiting_body": "Earth"
        }
    ],
    "orbital_data": {
        "orbit_id": "5",
        "orbit_determination_date": "2017-04-06 08:23:59",
        "first_observation_date": "2016-09-08",
        "last_observation_date": "2016-09-24",
        "data_arc_in_days": 16,
        "observations_used": 25,
        "orbit_uncertainty": "8",
        "minimum_orbit_intersection": ".182661",
        "jupiter_tisserand_invariant": "4.197",
        "epoch_osculation": "2457641.5",
        "eccentricity": ".3790412439402746",
        "semi_major_axis": "1.631351705285613",
        "inclination": "13.6077671211982",
        "ascending_node_longitude": "1.468697113629213",
        "orbital_period": "761.0616332211412",
        "perihelion_distance": "1.013002125610066",
        "perihelion_argument": "274.7622251571328",
        "aphelion_distance": "2.24970128496116",
        "perihelion_time": "2457564.652469750548",
        "mean_anomaly": "36.35068394226107",
        "mean_motion": ".4730234507766798",
        "equinox": "J2000",
        "orbit_class": {
            "orbit_class_type": "APO",
            "orbit_class_description": "Near-Earth asteroid orbits which cross the Earth’s orbit similar to that of 1862 Apollo",
            "orbit_class_range": "a (semi-major axis) > 1.0 AU; q (perihelion) < 1.017 AU"
        }
    },
    "is_sentry_object": false
}